[{"OBJECT_NAME":"STARLINK-6335","OBJECT_ID":"2023-065AA","EPOCH":"2026-03-09T10:45:54.897984","MEAN_MOTION":15.0253628,"ECCENTRICITY":0.00012012,"INCLINATION":43.0007,"RA_OF_ASC_NODE":211.1962,"ARG_OF_PERICENTER":265.9221,"MEAN_ANOMALY":94.1484,"EPHEMERIS_TYPE":0,"CLASSIFICATION_TYPE":"U","NORAD_CAT_ID":56527,"ELEMENT_SET_NO":999,"REV_AT_EPOCH":15659,"BSTAR":2.1691602e-5,"MEAN_MOTION_DOT":8.9e-7,"MEAN_MOTION_DDOT":0},{"OBJECT_NAME":"OBJECT G","OBJECT_ID":"2024-128G","EPOCH":"2026-03-09T22:09:32.997312","MEAN_MOTION":15.06569427,"ECCENTRICITY":0.00508438,"INCLINATION":61.9901,"RA_OF_ASC_NODE":202.8444,"ARG_OF_PERICENTER":113.9294,"MEAN_ANOMALY":246.7137,"EPHEMERIS_TYPE":0,"CLASSIFICATION_TYPE":"U","NORAD_CAT_ID":60241,"ELEMENT_SET_NO":999,"REV_AT_EPOCH":9135,"BSTAR":0.00049882926,"MEAN_MOTION_DOT":7.427e-5,"MEAN_MOTION_DDOT":0}]
